[Satellite]
VERSION=1.1
NAME=S-Net G
NICKNAME=S-Net G
TLE1=1 43186U 18014G   19311.56186743  .00000760  00000-0  71574-4 0  9992
TLE2=2 43186  97.7009 217.8766 0009435 247.6655 112.3567 14.96704585 96356
STATUS=0
